{
  "type": "FeatureCollection",
  "features": [
    {
      "type": "Feature",
      "properties": {
        "norad_id": 28890,
        "name": "BEIJING 1",
        "group": "dmc",
        "lat": -3.309542060505393,
        "lon": -64.1839605050932,
        "alt_km": 678.4800329975506,
        "timestamp": "2025-12-14T18:52:55.164778+00:00",
        "meta_object_name": "BEIJING 1",
        "meta_object_id": "2005-043A",
        "meta_epoch": "2025-12-13T23:59:49.886880",
        "meta_mean_motion": 14.63368408,
        "meta_eccentricity": 0.00153999,
        "meta_inclination": 98.2649,
        "meta_ra_of_asc_node": 115.5092,
        "meta_arg_of_pericenter": 137.3895,
        "meta_mean_anomaly": 222.8504,
        "meta_ephemeris_type": 0,
        "meta_classification_type": "U",
        "meta_norad_cat_id": 28890,
        "meta_element_set_no": 999,
        "meta_rev_at_epoch": 7356,
        "meta_bstar": 0.00013775637,
        "meta_mean_motion_dot": 6.64e-06,
        "meta_mean_motion_ddot": 0,
        "tle_line1": "1 28890U 05043A   25347.99988295  .00000664  00000+0  13776-3 0  9991",
        "tle_line2": "2 28890  98.2649 115.5092 0015399 137.3895 222.8504 14.63368408 73560"
      },
      "geometry": {
        "type": "Point",
        "coordinates": [
          -64.1839605050932,
          -3.309542060505393
        ]
      }
    },
    {
      "type": "Feature",
      "properties": {
        "norad_id": 33320,
        "name": "HUANJING 1A (HJ-1A)",
        "group": "dmc",
        "lat": -2.4376931141743583,
        "lon": -22.672214136840733,
        "alt_km": 609.8194890625218,
        "timestamp": "2025-12-14T18:52:55.164802+00:00",
        "meta_object_name": "HUANJING 1A (HJ-1A)",
        "meta_object_id": "2008-041A",
        "meta_epoch": "2025-12-13T23:27:58.699872",
        "meta_mean_motion": 14.83401596,
        "meta_eccentricity": 0.00200182,
        "meta_inclination": 97.6542,
        "meta_ra_of_asc_node": 336.2245,
        "meta_arg_of_pericenter": 30.4833,
        "meta_mean_anomaly": 329.7541,
        "meta_ephemeris_type": 0,
        "meta_classification_type": "U",
        "meta_norad_cat_id": 33320,
        "meta_element_set_no": 999,
        "meta_rev_at_epoch": 93094,
        "meta_bstar": 0.0003638844,
        "meta_mean_motion_dot": 2.945e-05,
        "meta_mean_motion_ddot": 0,
        "tle_line1": "1 33320U 08041A   25347.97776273  .00002945  00000+0  36388-3 0  9993",
        "tle_line2": "2 33320  97.6542 336.2245 0020018  30.4833 329.7541 14.83401596930940"
      },
      "geometry": {
        "type": "Point",
        "coordinates": [
          -22.672214136840733,
          -2.4376931141743583
        ]
      }
    },
    {
      "type": "Feature",
      "properties": {
        "norad_id": 33321,
        "name": "HUANJING 1B (HJ-1B)",
        "group": "dmc",
        "lat": -34.646284319091635,
        "lon": 155.36898452263966,
        "alt_km": 648.6956609970166,
        "timestamp": "2025-12-14T18:52:55.164816+00:00",
        "meta_object_name": "HUANJING 1B (HJ-1B)",
        "meta_object_id": "2008-041B",
        "meta_epoch": "2025-12-14T00:06:14.437728",
        "meta_mean_motion": 14.82827488,
        "meta_eccentricity": 0.00381461,
        "meta_inclination": 97.6402,
        "meta_ra_of_asc_node": 339.9437,
        "meta_arg_of_pericenter": 71.7772,
        "meta_mean_anomaly": 288.7588,
        "meta_ephemeris_type": 0,
        "meta_classification_type": "U",
        "meta_norad_cat_id": 33321,
        "meta_element_set_no": 999,
        "meta_rev_at_epoch": 93096,
        "meta_bstar": 0.00029154852,
        "meta_mean_motion_dot": 2.338e-05,
        "meta_mean_motion_ddot": 0,
        "tle_line1": "1 33321U 08041B   25348.00433377  .00002338  00000+0  29155-3 0  9994",
        "tle_line2": "2 33321  97.6402 339.9437 0038146  71.7772 288.7588 14.82827488930968"
      },
      "geometry": {
        "type": "Point",
        "coordinates": [
          155.36898452263966,
          -34.646284319091635
        ]
      }
    },
    {
      "type": "Feature",
      "properties": {
        "norad_id": 33446,
        "name": "YAOGAN-4",
        "group": "dmc",
        "lat": 53.840551731503304,
        "lon": 109.8442502593892,
        "alt_km": 625.0554060755385,
        "timestamp": "2025-12-14T18:52:55.164828+00:00",
        "meta_object_name": "YAOGAN-4",
        "meta_object_id": "2008-061A",
        "meta_epoch": "2025-12-13T19:38:34.739232",
        "meta_mean_motion": 14.82687573,
        "meta_eccentricity": 0.00135062,
        "meta_inclination": 97.9179,
        "meta_ra_of_asc_node": 277.9072,
        "meta_arg_of_pericenter": 319.5483,
        "meta_mean_anomaly": 40.4725,
        "meta_ephemeris_type": 0,
        "meta_classification_type": "U",
        "meta_norad_cat_id": 33446,
        "meta_element_set_no": 999,
        "meta_rev_at_epoch": 91819,
        "meta_bstar": 0.00027850382,
        "meta_mean_motion_dot": 2.196e-05,
        "meta_mean_motion_ddot": 0,
        "tle_line1": "1 33446U 08061A   25347.81845763  .00002196  00000+0  27850-3 0  9990",
        "tle_line2": "2 33446  97.9179 277.9072 0013506 319.5483  40.4725 14.82687573918197"
      },
      "geometry": {
        "type": "Point",
        "coordinates": [
          109.8442502593892,
          53.840551731503304
        ]
      }
    },
    {
      "type": "Feature",
      "properties": {
        "norad_id": 35681,
        "name": "DEIMOS-1",
        "group": "dmc",
        "lat": -18.165204974852735,
        "lon": -33.25499926891683,
        "alt_km": 651.378560692423,
        "timestamp": "2025-12-14T18:52:55.164840+00:00",
        "meta_object_name": "DEIMOS-1",
        "meta_object_id": "2009-041A",
        "meta_epoch": "2025-12-14T00:04:35.673024",
        "meta_mean_motion": 14.74955721,
        "meta_eccentricity": 0.00027169,
        "meta_inclination": 97.7149,
        "meta_ra_of_asc_node": 148.5475,
        "meta_arg_of_pericenter": 77.5805,
        "meta_mean_anomaly": 282.5708,
        "meta_ephemeris_type": 0,
        "meta_classification_type": "U",
        "meta_norad_cat_id": 35681,
        "meta_element_set_no": 999,
        "meta_rev_at_epoch": 87958,
        "meta_bstar": 0.00016648628,
        "meta_mean_motion_dot": 1.071e-05,
        "meta_mean_motion_ddot": 0,
        "tle_line1": "1 35681U 09041A   25348.00319066  .00001071  00000+0  16649-3 0  9991",
        "tle_line2": "2 35681  97.7149 148.5475 0002716  77.5805 282.5708 14.74955721879588"
      },
      "geometry": {
        "type": "Point",
        "coordinates": [
          -33.25499926891683,
          -18.165204974852735
        ]
      }
    },
    {
      "type": "Feature",
      "properties": {
        "norad_id": 35683,
        "name": "UK-DMC 2",
        "group": "dmc",
        "lat": -37.909075952797465,
        "lon": -62.54130547617519,
        "alt_km": 650.1608916866535,
        "timestamp": "2025-12-14T18:52:55.164851+00:00",
        "meta_object_name": "UK-DMC 2",
        "meta_object_id": "2009-041C",
        "meta_epoch": "2025-12-13T23:59:40.469280",
        "meta_mean_motion": 14.75626573,
        "meta_eccentricity": 0.00014691,
        "meta_inclination": 97.8557,
        "meta_ra_of_asc_node": 122.8664,
        "meta_arg_of_pericenter": 97.0032,
        "meta_mean_anomaly": 263.1345,
        "meta_ephemeris_type": 0,
        "meta_classification_type": "U",
        "meta_norad_cat_id": 35683,
        "meta_element_set_no": 999,
        "meta_rev_at_epoch": 87925,
        "meta_bstar": 0.00024701965,
        "meta_mean_motion_dot": 1.637e-05,
        "meta_mean_motion_ddot": 0,
        "tle_line1": "1 35683U 09041C   25347.99977395  .00001637  00000+0  24702-3 0  9992",
        "tle_line2": "2 35683  97.8557 122.8664 0001469  97.0032 263.1345 14.75626573879259"
      },
      "geometry": {
        "type": "Point",
        "coordinates": [
          -62.54130547617519,
          -37.909075952797465
        ]
      }
    },
    {
      "type": "Feature",
      "properties": {
        "norad_id": 40715,
        "name": "DMC3-FM1",
        "group": "dmc",
        "lat": -20.498739674516894,
        "lon": -141.20791992834032,
        "alt_km": 614.5507783066851,
        "timestamp": "2025-12-14T18:52:55.164862+00:00",
        "meta_object_name": "DMC3-FM1",
        "meta_object_id": "2015-032A",
        "meta_epoch": "2025-12-13T23:34:29.286624",
        "meta_mean_motion": 14.85444035,
        "meta_eccentricity": 0.00046051,
        "meta_inclination": 97.6691,
        "meta_ra_of_asc_node": 215.1296,
        "meta_arg_of_pericenter": 316.4828,
        "meta_mean_anomaly": 43.6024,
        "meta_ephemeris_type": 0,
        "meta_classification_type": "U",
        "meta_norad_cat_id": 40715,
        "meta_element_set_no": 999,
        "meta_rev_at_epoch": 56241,
        "meta_bstar": 0.00018047395,
        "meta_mean_motion_dot": 1.504e-05,
        "meta_mean_motion_ddot": 0,
        "tle_line1": "1 40715U 15032A   25347.98228341  .00001504  00000+0  18047-3 0  9998",
        "tle_line2": "2 40715  97.6691 215.1296 0004605 316.4828  43.6024 14.85444035562415"
      },
      "geometry": {
        "type": "Point",
        "coordinates": [
          -141.20791992834032,
          -20.498739674516894
        ]
      }
    },
    {
      "type": "Feature",
      "properties": {
        "norad_id": 40716,
        "name": "DMC3-FM2",
        "group": "dmc",
        "lat": -38.82734344877012,
        "lon": 31.119436406589433,
        "alt_km": 619.308052885217,
        "timestamp": "2025-12-14T18:52:55.164873+00:00",
        "meta_object_name": "DMC3-FM2",
        "meta_object_id": "2015-032B",
        "meta_epoch": "2025-12-13T22:29:52.724256",
        "meta_mean_motion": 14.85448053,
        "meta_eccentricity": 0.00051601,
        "meta_inclination": 97.6749,
        "meta_ra_of_asc_node": 216.5312,
        "meta_arg_of_pericenter": 322.3212,
        "meta_mean_anomaly": 37.7641,
        "meta_ephemeris_type": 0,
        "meta_classification_type": "U",
        "meta_norad_cat_id": 40716,
        "meta_element_set_no": 999,
        "meta_rev_at_epoch": 56240,
        "meta_bstar": 0.00024729103,
        "meta_mean_motion_dot": 2.081e-05,
        "meta_mean_motion_ddot": 0,
        "tle_line1": "1 40716U 15032B   25347.93741579  .00002081  00000+0  24729-3 0  9992",
        "tle_line2": "2 40716  97.6749 216.5312 0005160 322.3212  37.7641 14.85448053562406"
      },
      "geometry": {
        "type": "Point",
        "coordinates": [
          31.119436406589433,
          -38.82734344877012
        ]
      }
    },
    {
      "type": "Feature",
      "properties": {
        "norad_id": 40717,
        "name": "DMC3-FM3",
        "group": "dmc",
        "lat": 74.39785429351932,
        "lon": 67.88321608314675,
        "alt_km": 607.6128497945583,
        "timestamp": "2025-12-14T18:52:55.164883+00:00",
        "meta_object_name": "DMC3-FM3",
        "meta_object_id": "2015-032C",
        "meta_epoch": "2025-12-13T23:01:01.737696",
        "meta_mean_motion": 14.85435309,
        "meta_eccentricity": 0.00045338,
        "meta_inclination": 97.6805,
        "meta_ra_of_asc_node": 218.1858,
        "meta_arg_of_pericenter": 324.5826,
        "meta_mean_anomaly": 35.5088,
        "meta_ephemeris_type": 0,
        "meta_classification_type": "U",
        "meta_norad_cat_id": 40717,
        "meta_element_set_no": 999,
        "meta_rev_at_epoch": 56241,
        "meta_bstar": 0.00015163012,
        "meta_mean_motion_dot": 1.255e-05,
        "meta_mean_motion_ddot": 0,
        "tle_line1": "1 40717U 15032C   25347.95904789  .00001255  00000+0  15163-3 0  9993",
        "tle_line2": "2 40717  97.6805 218.1858 0004533 324.5826  35.5088 14.85435309562413"
      },
      "geometry": {
        "type": "Point",
        "coordinates": [
          67.88321608314675,
          74.39785429351932
        ]
      }
    }
  ]
}